NUSAT-26 (M SOMERVILLE) 
1 52184U 22033AD  25138.52459732  .00015259  00000+0  53260-3 0  9996
2 52184  97.2699 219.2393 0007675 210.5023 149.5772 15.29661080174499
GLOBAL-18               
1 52196U 22034B   25138.54906484  .00020556  00000+0  53494-3 0  9998
2 52196  52.9862 326.2991 0000815 211.6943 148.4010 15.38893603176131
GAOFEN-3 03             
1 52200U 22035A   25138.46883621  .00000070  00000+0  34453-4 0  9997
2 52200  98.4100 147.6931 0000980  78.4420 281.6879 14.42213096163964
COSMOS 2554             
1 52202U 22036A   25138.48726027 -.00000023  00000+0  37698-4 0  9991
2 52202  67.1453 108.0013 0005013 272.4194  87.6316 13.96673184158834
ZHONGXING-6D            
1 52255U 22038A   25136.99999111 -.00000341  00000+0  00000+0 0  9996
2 52255   0.0554 263.6701 0000935  82.7747  13.5644  1.00274398 11450
DAQI 1                  
1 52257U 22039A   25138.52088423  .00000466  00000+0  11205-3 0  9995
2 52257  98.2447  78.3351 0004330  52.1887 307.9703 14.57743200164446
STARLINK-3761           
1 52262U 22041B   25137.88375819  .00000420  00000+0  44452-4 0  9991
2 52262  53.2187 356.9959 0001375  86.2541 273.8608 15.08840195169701
STARLINK-3786           
1 52263U 22041C   25137.88744639  .00000383  00000+0  42179-4 0  9994
2 52263  53.2180 357.0266 0001293  91.9860 268.1281 15.08838875170915
STARLINK-3795           
1 52264U 22041D   25137.88008698 -.00000061  00000+0  14283-4 0  9992
2 52264  53.2177 357.0594 0001317  97.1404 262.9737 15.08837330170918
STARLINK-3740           
1 52265U 22041E   25137.61144612  .00001077  00000+0  85727-4 0  9999
2 52265  53.2168 358.2686 0001920  42.0765 318.0374 15.08842781170896
STARLINK-3739           
1 52266U 22041F   25138.33640456  .00000858  00000+0  72001-4 0  9994
2 52266  53.2175 355.0128 0001356  89.8074 270.3074 15.08840582171004
STARLINK-3748           
1 52267U 22041G   25138.46520519  .00000425  00000+0  44817-4 0  9990
2 52267  53.2177 354.4380 0001592  99.6140 260.5032 15.08843695171019
STARLINK-3746           
1 52268U 22041H   25138.31431714  .00001422  00000+0  10742-3 0  9990
2 52268  53.2188 355.0344 0001308  80.8744 279.2396 15.08835623170994
STARLINK-3791           
1 52269U 22041J   25138.32904868  .00001274  00000+0  98159-4 0  9991
2 52269  53.2178 355.0460 0001528  79.0244 281.0920 15.08834178170990
STARLINK-3804           
1 52270U 22041K   25138.32169368  .00000852  00000+0  71640-4 0  9998
2 52270  53.2174 355.1083 0001542  87.0574 273.0595 15.08841016170988
STARLINK-3788           
1 52271U 22041L   25138.32536103  .00000399  00000+0  43165-4 0  9991
2 52271  53.2163 355.0609 0000854 105.7388 254.3699 15.08843592170995
STARLINK-3781           
1 52272U 22041M   25138.31897064  .00000198  00000+0  30539-4 0  9995
2 52272  53.2179 355.1289 0001421  85.9329 274.1826 15.08837741171007
STARLINK-3782           
1 52273U 22041N   25138.29049194  .00002701  00000+0  18777-3 0  9997
2 52273  53.2183 345.6020 0001399  86.9460 273.1693 15.08827566171129
STARLINK-3790           
1 52274U 22041P   25137.64825229 -.00002624  00000+0 -14687-3 0  9999
2 52274  53.2187 358.1015 0001313  87.7981 272.3161 15.08831496169675
STARLINK-3784           
1 52275U 22041Q   25138.31800802  .00001078  00000+0  85796-4 0  9995
2 52275  53.2184 355.0951 0001306  82.2502 277.8639 15.08840306170985
STARLINK-3778           
1 52276U 22041R   25138.57192900 -.00000315  00000+0 -16496-5 0  9994
2 52276  53.2188 353.9536 0002296  80.0609 280.0643 15.08832491171033
STARLINK-3780           
1 52278U 22041T   25137.64088779  .00001812  00000+0  13193-3 0  9991
2 52278  53.2190 358.1353 0001323  98.2948 261.8194 15.08838393169671
STARLINK-3764           
1 52280U 22041V   25138.29224992  .00000103  00000+0  24573-4 0  9992
2 52280  53.2164 355.2097 0001203  76.8822 283.2304 15.08836804170991
STARLINK-3779           
1 52281U 22041W   25137.91048683  .00001160  00000+0  90982-4 0  9993
2 52281  53.2187 356.9232 0001261  86.0454 274.0683 15.08829913169713
STARLINK-3783           
1 52282U 22041X   25138.55077002  .00000144  00000+0  27109-4 0  9994
2 52282  53.2183 344.0505 0001313  87.4842 272.6301 15.08835106171169
STARLINK-3789           
1 52283U 22041Y   25137.90216231  .00000643  00000+0  58483-4 0  9995
2 52283  53.2184 356.9612 0001347  88.2998 271.8148 15.08842544169712
STARLINK-3561           
1 52284U 22041Z   25137.88100820  .00000038  00000+0  20458-4 0  9998
2 52284  53.2187 347.0592 0001454 104.9590 255.1563 15.08835836169843
STARLINK-3775           
1 52285U 22041AA  25138.29592129  .00000773  00000+0  66665-4 0  9998
2 52285  53.2175 355.1922 0001325  89.9369 270.1775 15.08841885171005
STARLINK-3802           
1 52286U 22041AB  25138.53605493 -.00000527  00000+0 -15056-4 0  9992
2 52286  53.2176 344.1155 0001355  86.3082 273.8065 15.08831000171166
STARLINK-3822           
1 52287U 22041AC  25137.89112175  .00000070  00000+0  22503-4 0  9997
2 52287  53.2187 357.0121 0001476  91.8134 268.3028 15.08843995169710
STARLINK-3776           
1 52288U 22041AD  25137.86996429  .00000652  00000+0  59052-4 0  9992
2 52288  53.2162 347.1056 0001162  84.2481 275.8643 15.08836661169846
STARLINK-3751           
1 52289U 22041AE  25137.88469193 -.00000056  00000+0  14587-4 0  9991
2 52289  53.2171 347.0402 0001232 100.3259 259.7872 15.08832765169848
STARLINK-3772           
1 52290U 22041AF  25137.85988173 -.00000145  00000+0  90002-5 0  9990
2 52290  53.2178 347.1492 0001487  85.2499 274.8663 15.08841412169841
STARLINK-3773           
1 52291U 22041AG  25138.40039931  .00239293  00000+0  24672-2 0  9996
2 52291  53.1937 288.0549 0000759 113.2856 246.8240 15.63529979171946
STARLINK-3753           
1 52292U 22041AH  25137.85524511  .00000081  00000+0  23154-4 0  9995
2 52292  53.2164 347.1724 0001378  88.0972 272.0178 15.08837201169844
STARLINK-3771           
1 52293U 22041AJ  25137.86724771 -.00003650  00000+0 -21143-3 0  9999
2 52293  53.2186 347.1330 0000848  74.6700 285.4386 15.08833605169846
STARLINK-3777           
1 52294U 22041AK  25137.85156881 -.00000001  00000+0  18060-4 0  9991
2 52294  53.2180 347.1900 0001504  90.9285 269.1879 15.08837599169845
STARLINK-3765           
1 52295U 22041AL  25138.59124624 -.00000134  00000+0  96838-5 0  9991
2 52295  53.2176 343.8669 0001366  91.3920 268.7229 15.08837570171175
STARLINK-3766           
1 52296U 22041AM  25137.97300713  .00000128  00000+0  26094-4 0  9996
2 52296  53.2159 346.6433 0001235 118.6478 241.4639 15.08851269171087
STARLINK-3758           
1 52297U 22041AN  25137.85892375  .00000169  00000+0  28688-4 0  9990
2 52297  53.2185 347.1564 0001455  92.1441 267.9718 15.08842185169847
STARLINK-3760           
1 52298U 22041AP  25137.86624105 -.00000942  00000+0 -41087-4 0  9995
2 52298  53.2175 346.7361 0001201  86.5009 273.6121 15.08841272169852
STARLINK-3769           
1 52300U 22041AR  25138.55813205  .00000085  00000+0  23421-4 0  9995
2 52300  53.2161 344.0172 0001501  85.9233 274.1931 15.08837944171171
STARLINK-3768           
1 52301U 22041AS  25137.84788502  .00000163  00000+0  28308-4 0  9994
2 52301  53.2184 347.2057 0001346  90.6214 269.4932 15.08840881171052
STARLINK-3564           
1 52302U 22041AT  25138.54799857 -.00008979  00000+0 -54591-3 0  9995
2 52302  53.2185 334.0640 0001576  72.6951 287.4214 15.08895712171291
STARLINK-3742           
1 52303U 22041AU  25137.83316612  .00001065  00000+0  84986-4 0  9990
2 52303  53.2171 347.2708 0001200  90.7202 269.3928 15.08840522171067
STARLINK-3744           
1 52304U 22041AV  25137.81568891 -.00000062  00000+0  14219-4 0  9996
2 52304  53.2186 337.3525 0001506  77.5212 282.5948 15.08837116169975
STARLINK-3724           
1 52305U 22041AW  25137.83686033 -.00000040  00000+0  15610-4 0  9990
2 52305  53.2181 347.3585 0001483  87.0790 273.0372 15.08840669169848
STARLINK-3747           
1 52306U 22041AX  25138.54064982  .00000227  00000+0  32364-4 0  9994
2 52306  53.2181 334.0970 0001385  84.6064 275.5086 15.08837825171301
STARLINK-3755           
1 52307U 22041AY  25137.29588857  .00000236  00000+0  32911-4 0  9996
2 52307  53.2183 349.6820 0001278  82.8310 277.2828 15.08837418169763
STARLINK-3756           
1 52309U 22041BA  25137.54336873  .00000124  00000+0  25879-4 0  9996
2 52309  53.2185 338.5719 0001289  87.9111 272.2029 15.08838065171151
STARLINK-3688           
1 52310U 22041BB  25137.53969536  .00000251  00000+0  33855-4 0  9999
2 52310  53.2176 338.6539 0001274  88.3618 271.7520 15.08837974171153
STARLINK-3750           
1 52311U 22041BC  25138.52961059  .00000603  00000+0  55933-4 0  9994
2 52311  53.2184 334.1424 0001383  83.9143 276.2007 15.08851997171300
STARLINK-3752           
1 52312U 22041BD  25138.55536144  .00000605  00000+0  56101-4 0  9991
2 52312  53.2176 333.9797 0001465  91.4028 268.7132 15.08839365171310
STARLINK-3749           
1 52313U 22041BE  25138.55904941 -.00000024  00000+0  16572-4 0  9990
2 52313  53.2172 334.0140 0001354  89.9870 270.1277 15.08835491171318
SUPERVIEW NEO-1 01      
1 52320U 22043A   25138.54495027  .00005605  00000+0  33154-3 0  9992
2 52320  97.3762 219.3443 0002045 158.8169 201.3147 15.11836797169847
SUPERVIEW NEO-1 02      
1 52322U 22043C   25138.49548657  .00006080  00000+0  35991-3 0  9995
2 52322  97.3757 219.3689 0000728 203.5279 156.5918 15.11774552169859
STARLINK-3889           
1 52331U 22045A   25138.08433699  .00008931  00000+0  57887-3 0  9996
2 52331  53.2161  96.1416 0001667  95.9468 264.1714 15.08815306171014
STARLINK-3831           
1 52332U 22045B   25137.89760533 -.00000120  00000+0  10590-4 0  9999
2 52332  53.2171  96.9910 0001680  91.4999 268.6186 15.08838662170985
STARLINK-3847           
1 52333U 22045C   25137.62800593  .00001200  00000+0  93473-4 0  9992
2 52333  53.2169  98.1892 0001511 104.9745 255.1414 15.08844947170931
